#cP2022  3  8  0  0  0.00000000     576 d+D   IGb14 EXT AIUB
## 2200 172800.00000000   300.00000000 59646 0.0000000000000
+   76   G01G02G03G04G05G06G07G08G09G10G11G12G13G14G15G16G17
+        G18G19G20G21G22G23G24G25G26G27G28G29G30G31G32R01R02
+        R03R04R05R07R08R09R11R12R13R14R15R17R18R19R20R21R22
+        R24E01E02E03E04E05E07E08E09E10E11E12E13E14E15E19E21
+        E25E26E27E30E31E33E34E36  0  0  0  0  0  0  0  0  0
++         5  7  5  8  7  7  7  6  7  5  8  7  6  7  7  7  7
++         8  7  7  7  7  7  6  6  6  6  7  7  5  7  6  9  7
++         8  8  8  8  7  7  7  6  7  6  6  8  8  8  9  9  9
++         9  6  6  6  6  6  6  6  7  7  6  7  6  7  5  7  8
++         6  6  6  6  5  6  7  6  0  0  0  0  0  0  0  0  0
%c M  cc GPS ccc cccc cccc cccc cccc ccccc ccccc ccccc ccccc
%c cc cc ccc ccc cccc cccc cccc cccc ccccc ccccc ccccc ccccc
%f  1.2500000  1.025000000  0.00000000000  0.000000000000000
%f  0.0000000  0.000000000  0.00000000000  0.000000000000000
%i    0    0    0    0      0      0      0      0         0
%i    0    0    0    0      0      0      0      0         0
/* Center for Orbit Determination in Europe (CODE)          
/* Ultra-rapid GRE orbits starting year-day 22067 00 hour   
/* Observed/predicted: 24/24 hours (data used up to 067X)   
/* PCV:IGS14      OL/AL:FES2014b NONE     YN ORB:CoN CLK:BRD
*  2022  3  9 21 50  0.00000000
PG01  14157.833139  -3158.807267  21964.360920    412.833073               P   P
PG02 -14531.219300 -18100.347719 -12125.168986   -652.037930               P   P
PG03  21839.788358 -11126.121994   9987.425155   -156.093428               P   P
PG04  23549.380038  -1043.687225 -12313.288624   -184.744671               P   P
PG05 -17066.509582  -2974.699080 -20334.850454    -74.104110               P   P
PG06  -5253.348804 -25974.470412   1024.627564    226.009708               P   P
PG07   7337.056608 -19309.652927 -16026.246697    315.120467               P   P
PG08  26044.263153   5656.083855   2315.504292    -59.204323               P   P
PG09  15308.769992  -9932.363595 -19376.246057   -350.603319               P   P
PG10  -7201.874903  20729.785503  14894.209454   -342.136612               P   P
PG11 -12592.571244 -19467.614244 -12973.856506    -67.249136               P   P
PG12 -22208.090929   7143.365659  12305.442297   -182.449030               P   P
PG13 -22611.478697 -13509.797986  -4198.578093    274.190902               P   P
PG14   8807.982035 -20747.017502  13985.848399    -92.222915               P   P
PG15 -26450.378978  -2753.465782   2331.173124    -78.027310               P   P
PG16  13873.793022   7923.972096 -21558.045555   -478.765874               P   P
PG17   -681.144424 -15823.145896  21747.782729    585.120953               P   P
PG18  -7386.920869  19434.821117 -16470.476047    223.518819               P   P
PG19  -9146.215044 -17048.441124  18021.792660    128.897690               P   P
PG20 -10490.409109 -11821.138516 -21363.459539    516.376949               P   P
PG21  17006.208267   7725.800869  19783.482171    159.167118               P   P
PG22  11950.016319  17297.513521  16744.217822    225.048188               P   P
PG23 -16010.706206  20560.223200   4858.604991     -5.427964               P   P
PG24 -16341.360499  -1002.590113  20679.647107    269.434144               P   P
PG25 -19725.070301  17491.418748   1228.032610    296.096585               P   P
PG26   3964.467805  17035.568480 -19990.033419    189.492284               P   P
PG27  21957.328208  12772.695537  -8626.057694    148.405550               P   P
PG28   1248.240793 -18233.768451  19870.122691    384.013561               P   P
PG29 -17538.422113   6715.492037 -18853.580270   -489.431846               P   P
PG30   1790.390901 -24625.253496  -9376.440199   -517.806980               P   P
PG31   6612.398707  25402.412827  -1827.684254   -168.197419               P   P
PG32   5619.875994  16484.587248  20239.195973    -81.696840               P   P
PR01  -1997.950938 -10865.629255 -22986.248220      7.196885               P   P
PR02 -20572.202770  -3738.181428 -14519.529310    511.941675               P   P
PR03 -24873.920977   5082.558434   2199.672012     52.821495               P   P
PR04 -15275.628481  10667.634656  17447.994830    131.228547               P   P
PR05   2747.105678  10499.330444  23099.054618     89.092285               P   P
PR07  24812.162123  -5323.260024  -2781.550314     32.486248               P   P
PR08  15202.542326 -10780.612428 -17369.444579    -63.975343               P   P
PR09   8920.387604   8073.324009 -22487.756008     43.481665               P   P
PR11  10744.896579 -22538.393974  -5187.751966     43.941372               P   P
PR12   1539.460240 -21918.977195  12994.655761     17.385143               P   P
PR13  -8112.201913  -9124.879741  22375.159274    -19.269662               P   P
PR14 -13608.396255  10366.882488  18930.847544     75.234706               P   P
PR15 -10785.846030  22688.735022   4429.366740     97.661225               P   P
PR17 -14474.768077  -2897.549253 -20801.507787    508.190782               P   P
PR18  -3347.436148  11862.544892 -22326.118669    109.789022               P   P
PR19   8128.761811  20368.484644 -13029.606182   -180.970753               P   P
PR20  17115.085554  17611.127967   7001.736879    -66.403763               P   P
PR21  13671.275406   1641.524016  21469.513497   -284.015433               P   P
PR22   2802.244043 -12369.197475  22099.516737   -169.618067               P   P
PR24 -17699.732601 -16732.232710  -7570.432215     83.624321               P   P
PE01 -14886.871485  -7928.196627  24318.877325   -593.671153               P   P
PE02  15021.878320   7752.689951 -24307.595011    285.185944               P   P
PE03  26142.152441  10659.335977   8880.168402   -535.691516               P   P
PE04 -27999.359692   2085.376283   9379.486888   -981.047114               P   P
PE05   8877.770202  17378.172914  22261.267198   -201.892183               P   P
PE07  13302.735806 -13885.472087 -22493.847046   -646.712552               P   P
PE08  27840.004335  -2389.949309  -9749.819272   -492.400142               P   P
PE09 -13006.588650  13899.400763  22675.455653   5334.112003               P   P
PE10 -11899.948516  12383.806111 -24111.385413   -499.593025               P   P
PE11  -5306.384538  21626.424837 -19517.061839   4270.882724               P   P
PE12 -16445.291688   1696.391649 -24547.451104   4721.620106               P   P
PE13   5684.985499 -21089.167190  19978.506627    427.155148               P   P
PE14  15185.434683  -8312.291040  15785.832196  -1772.480375               P   P
PE15  16438.797297  -1506.495203  24580.145444    758.768998               P   P
PE19 -24725.567590 -11928.948175 -11055.140512  -1045.602748               P   P
PE21    600.284955 -21951.650786  19845.529166   -721.591916               P   P
PE25   -816.399360  22066.302526 -19707.553317   -566.234051               P   P
PE26  -8867.097097 -28111.764716   2675.572512   -893.588569               P   P
PE27  16655.231537 -24195.574000   3719.642108   -249.482162               P   P
PE30  22807.870447 -11132.029103 -15265.404405   -335.477890               P   P
PE31 -22771.596945  12175.030524  14463.845240   -493.286469               P   P
PE33 -17446.200872 -18871.356065 -14665.183822   -458.703682               P   P
PE34  17533.055006  18673.126620  14833.877843   -505.891202               P   P
PE36   8353.007127  28168.672666  -3654.525183   -343.014006               P   P
EOF
